*******************************************************************************
JPL/HORIZONS                  66 Maja (A861 GA)            2020-Jun-20 08:03:56
Rec #:      66 (+COV) Soln.date: 2020-May-20_00:57:44   # obs: 3183 (1861-2020)
 
IAU76/J2000 helio. ecliptic osc. elements (au, days, deg., period=Julian yrs):
 
  EPOCH=  2455207.5 ! 2010-Jan-11.00 (TDB)         Residual RMS= .31491
   EC= .1711189020036979   QR= 2.194141275185194   TP= 2455369.5187582178
   OM= 7.566146064756148   W=  43.48915405823634   IN= 3.047954470886916
   A= 2.647112210049435    MA= 322.9224656237614   ADIST= 3.100083144913676
   PER= 4.30692            N= .228847164           ANGMOM= .027574918
   DAN= 2.28582            DDN= 2.93383            L= 51.0148035
   B= 2.0971339            MOID= 1.20529997        TP= 2010-Jun-22.0187582178
 
Asteroid physical parameters (km, seconds, rotational period in hours):
   GM= n.a.                RAD= 35.91              ROTPER= 9.73509
   H= 9.5                  G= .150                 B-V= .697
                           ALBEDO= .016            STYP= Ch
 
ASTEROID comments: 
1: soln ref.= JPL#49, OCC=0
2: source=ORB
*******************************************************************************
 
 
*******************************************************************************
Ephemeris / WWW_USER Sat Jun 20 08:03:56 2020 Pasadena, USA      / Horizons
*******************************************************************************
Target body name: 66 Maja (A861 GA)               {source: JPL#49}
Center body name: Solar System Barycenter (0)     {source: DE431}
Center-site name: BODY CENTER
*******************************************************************************
Start time      : A.D. 1969-Jun-28 00:00:00.0000 TDB
Stop  time      : A.D. 2071-May-04 00:00:00.0000 TDB
Step-size       : 7200 minutes
*******************************************************************************
Center geodetic : 0.00000000,0.00000000,0.0000000 {E-lon(deg),Lat(deg),Alt(km)}
Center cylindric: 0.00000000,0.00000000,0.0000000 {E-lon(deg),Dxy(km),Dz(km)}
Center radii    : (undefined)                                                  
Small perturbers: Yes                             {source: SB431-N16}
Output units    : AU-D
Output type     : GEOMETRIC cartesian states
Output format   : 2 (position and velocity)
Reference frame : Ecliptic of J2000.0
*******************************************************************************
Initial IAU76/J2000 heliocentric ecliptic osculating elements (au, days, deg.):
  EPOCH=  2455207.5 ! 2010-Jan-11.00 (TDB)         Residual RMS= .31491        
   EC= .1711189020036979   QR= 2.194141275185194   TP= 2455369.5187582178      
   OM= 7.566146064756148   W=  43.48915405823634   IN= 3.047954470886916       
  Equivalent ICRF heliocentric equatorial cartesian coordinates (au, au/d):
   X= 2.320511233171782E+00  Y= 2.997872805732937E-03  Z=-1.665572416270150E-02
  VX=-1.406041073933621E-03 VY= 1.063616600277493E-02 VZ= 5.304900371370065E-03
Asteroid physical parameters (km, seconds, rotational period in hours):        
   GM= n.a.                RAD= 35.91              ROTPER= 9.73509             
   H= 9.5                  G= .150                 B-V= .697                   
                           ALBEDO= .016            STYP= Ch                    
*******************************************************************************
            JDTDB,            Calendar Date (TDB),        delta-T,                      X,                      Y,                      Z,                     VX,                     VY,                     VZ,
******************************************************************************************************************************************************************************************************************
$$SOE
2453840.500000000, A.D. 2006-Apr-15 00:00:00.0000,      65.185625,  9.265764659973267E-01,  1.992848569334663E+00,  9.831618519643717E-02, -1.120355035063712E-02,  5.669274301084730E-03,  3.784238976420004E-04,
2453845.500000000, A.D. 2006-Apr-20 00:00:00.0000,      65.185590,  8.702430651378539E-01,  2.020497162035994E+00,  1.001737351328224E-01, -1.132843404441361E-02,  5.389669198230815E-03,  3.645602580350280E-04,
2453850.500000000, A.D. 2006-Apr-25 00:00:00.0000,      65.185545,  8.133059471006733E-01,  2.046740587673003E+00,  1.019614429799619E-01, -1.144502532696193E-02,  5.107259957316990E-03,  3.504897465568422E-04,
2453855.500000000, A.D. 2006-Apr-30 00:00:00.0000,      65.185490,  7.558067394442340E-01,  2.071565613753183E+00,  1.036783147905684E-01, -1.155326057900499E-02,  4.822362019289644E-03,  3.362285549138290E-04,
2453860.500000000, A.D. 2006-May-05 00:00:00.0000,      65.185423,  6.977873491703452E-01,  2.094960586624191E+00,  1.053234379367785E-01, -1.165309162582786E-02,  4.535291321458640E-03,  3.217930107261734E-04,
2453865.500000000, A.D. 2006-May-10 00:00:00.0000,      65.185345,  6.392898858082924E-01,  2.116915431604814E+00,  1.068959816635465E-01, -1.174448560315595E-02,  4.246363360615642E-03,  3.071995271632293E-04,
2453870.500000000, A.D. 2006-May-15 00:00:00.0000,      65.185256,  5.803565853375010E-01,  2.137421648488445E+00,  1.083951973920779E-01, -1.182742475632750E-02,  3.955892279921326E-03,  2.924645533793574E-04,
2453875.500000000, A.D. 2006-May-20 00:00:00.0000,      65.185158,  5.210297352752726E-01,  2.156472302552592E+00,  1.098204187780680E-01, -1.190190617553798E-02,  3.664189985321439E-03,  2.776045260355157E-04,
2453880.500000000, A.D. 2006-May-25 00:00:00.0000,      65.185054,  4.613516012424482E-01,  2.174062011233419E+00,  1.111710615305532E-01, -1.196794146997681E-02,  3.371565295563933E-03,  2.626358220350183E-04,
2453885.500000000, A.D. 2006-May-30 00:00:00.0000,      65.184943,  4.013643553015334E-01,  2.190186926638137E+00,  1.124466229977925E-01, -1.202555638583905E-02,  3.078323127701395E-03,  2.475747126675541E-04,
2453890.500000000, A.D. 2006-Jun-04 00:00:00.0000,      65.184825,  3.411100063303569E-01,  2.204844714083225E+00,  1.136466815286415E-01, -1.207479037503862E-02,  2.784763723278792E-03,  2.324373197742711E-04,
2453895.500000000, A.D. 2006-Jun-09 00:00:00.0000,      65.184699,  2.806303326682337E-01,  2.218034526881866E+00,  1.147708956206186E-01, -1.211569611770599E-02,  2.491181922650823E-03,  2.172395742455989E-04,
2453900.500000000, A.D. 2006-Jun-14 00:00:00.0000,      65.184567,  2.199668172605463E-01,  2.229756977627352E+00,  1.158190028659144E-01, -1.214833900109295E-02,  2.197866488935002E-03,  2.019971766854075E-04,
2453905.500000000, A.D. 2006-Jun-19 00:00:00.0000,      65.184432,  1.591605855057725E-01,  2.240014106219958E+00,  1.167908187062969E-01, -1.217279656076233E-02,  1.905099481638649E-03,  1.867255603457794E-04,
2453910.500000000, A.D. 2006-Jun-24 00:00:00.0000,      65.184296,  9.825234597824659E-02,  2.248809344889947E+00,  1.176862350088799E-01, -1.218915789000730E-02,  1.613155681856702E-03,  1.714398565730128E-04,
2453915.500000000, A.D. 2006-Jun-29 00:00:00.0000,      65.184158,  3.728233417249448E-02,  2.256147480479441E+00,  1.185052184757265E-01, -1.219752302262753E-02,  1.322302070843187E-03,  1.561548629100408E-04,
2453920.500000000, A.D. 2006-Jul-04 00:00:00.0000,      65.184018, -2.370974060997436E-02,  2.262034614252748E+00,  1.192478089007705E-01, -1.219800229398969E-02,  1.032797362922456E-03,  1.408850139316299E-04,
2453925.500000000, A.D. 2006-Jul-09 00:00:00.0000,      65.183876, -8.468474513510021E-02,  2.266478119507847E+00,  1.199141172878433E-01, -1.219071568526722E-02,  7.448915930515037E-04,  1.256443548575231E-04,
2453930.500000000, A.D. 2006-Jul-14 00:00:00.0000,      65.183735, -1.456041687998748E-01,  2.269486597262036E+00,  1.205043238437644E-01, -1.217579215565428E-02,  4.588257588527221E-04,  1.104465179659689E-04,
2453935.500000000, A.D. 2006-Jul-19 00:00:00.0000,      65.183596, -2.064301668366026E-01,  2.271069830282742E+00,  1.210186758605048E-01, -1.215336896716512E-02,  1.748315165144114E-04,  9.530470180673621E-05,
2453940.500000000, A.D. 2006-Jul-24 00:00:00.0000,      65.183462, -2.671256001317687E-01,  2.271238735730507E+00,  1.214574855003616E-01, -1.212359100637967E-02, -1.068690704387515E-04,  8.023165318708236E-05,
2453945.500000000, A.D. 2006-Jul-29 00:00:00.0000,      65.183332, -3.276540716545115E-01,  2.270005316675191E+00,  1.218211274978891E-01, -1.208661010718832E-02, -3.860637308947783E-04,  6.523965187551147E-05,
2453950.500000000, A.D. 2006-Aug-03 00:00:00.0000,      65.183205, -3.879799595091410E-01,  2.267382612738464E+00,  1.221100367919697E-01, -1.204258437825834E-02, -6.625501362220278E-04,  5.034049793782078E-05,
2453955.500000000, A.D. 2006-Aug-08 00:00:00.0000,      65.183083, -4.480684466439906E-01,  2.263384650105655E+00,  1.223247061009158E-01, -1.199167753865592E-02, -9.361360028628863E-04,  3.554550159365087E-05,
2453960.500000000, A.D. 2006-Aug-13 00:00:00.0000,      65.182967, -5.078855472656044E-01,  2.258026391138149E+00,  1.224656834529019E-01, -1.193405826489622E-02, -1.206639149931708E-03,  2.086547546922404E-05,
2453965.500000000, A.D. 2006-Aug-18 00:00:00.0000,      65.182859, -5.673981300233087E-01,  2.251323683805247E+00,  1.225335696833770E-01, -1.186989955252970E-02, -1.473887514217895E-03,  6.310729116939204E-06,
2453970.500000000, A.D. 2006-Aug-23 00:00:00.0000,      65.182760, -6.265739380432249E-01,  2.243293211142441E+00,  1.225290159104233E-01, -1.179937809462604E-02, -1.737719125136010E-03, -8.108934360825559E-06,
2453975.500000000, A.D. 2006-Aug-28 00:00:00.0000,      65.182671, -6.853816059004542E-01,  2.233952440926477E+00,  1.224527209981634E-01, -1.172267367895920E-02, -1.997982043941191E-03, -2.238421971706991E-05,
